0 SOICAL (CONE)
1 04132U 69082K   13282.80433130  .00000785  00000-0  38174-3 0  5737
2 04132 069.9977 233.6758 0011932 331.7362 028.3108 14.21816892261108
0 SOICAL (CONE)
1 04132U 69082K   13284.14100280  .00001076  00000-0  51364-3 0  5744
2 04132 069.9978 230.6930 0011987 330.4824 029.5617 14.21818746261295
0 SOICAL (CONE)
1 04132U 69082K   13285.33697065  .00000957  00000-0  45946-3 0  5755
2 04132 069.9980 228.0242 0012050 329.2217 030.8194 14.21821125261468
0 SOICAL (CONE)
1 04132U 69082K   13286.81434021  .00001070  00000-0  51091-3 0  5766
2 04132 069.9982 224.7276 0012103 327.6997 032.3379 14.21824377261673
0 SOICAL (CONE)
1 04132U 69082K   13288.01030432  .00001336  00000-0  63131-3 0  5772
2 04132 069.9982 222.0590 0012146 326.3570 033.6777 14.21829618261841
0 SOICAL (CONE)
1 04132U 69082K   13289.13591402  .00001004  00000-0  48065-3 0  5787
2 04132 069.9982 219.5474 0012193 325.1741 034.8579 14.21833793262003
0 SOICAL (CONE)
1 04132U 69082K   13290.19117031  .00000923  00000-0  44422-3 0  5790
2 04132 069.9981 217.1928 0012223 324.1418 035.8880 14.21836095262154
0 SOICAL (CONE)
1 04132U 69082K   13291.80922530  .00000870  00000-0  42022-3 0  5804
2 04132 069.9979 213.5825 0012252 322.5401 037.4863 14.21838910262385
0 SOICAL (CONE)
1 04132U 69082K   13293.00517565  .00001017  00000-0  48665-3 0  5810
2 04132 069.9978 210.9140 0012273 321.2423 038.7815 14.21840412262558
0 SOICAL (CONE)
1 04132U 69082K   13294.48252438  .00001073  00000-0  51203-3 0  5823
2 04132 069.9978 207.6174 0012305 319.8242 040.1966 14.21843521262767
0 SOICAL (CONE)
1 04132U 69082K   13295.81917043  .00001234  00000-0  58503-3 0  5831
2 04132 069.9977 204.6348 0012341 318.4354 041.5825 14.21845791262956
